[
  {
    "OBJECT_NAME": "STARLINK-31173",
    "OBJECT_ID": "2024-012R",
    "EPOCH": "2024-01-31T00:00:02.000160",
    "MEAN_MOTION": 15.96403588,
    "ECCENTRICITY": 0.0002198,
    "INCLINATION": 43.0012,
    "RA_OF_ASC_NODE": 180.0249,
    "ARG_OF_PERICENTER": 289.4899,
    "MEAN_ANOMALY": 254.4554,
    "EPHEMERIS_TYPE": 0,
    "CLASSIFICATION_TYPE": "U",
    "NORAD_CAT_ID": 58802,
    "ELEMENT_SET_NO": 999,
    "REV_AT_EPOCH": 375,
    "BSTAR": -0.0003023,
    "MEAN_MOTION_DOT": -0.00134576,
    "MEAN_MOTION_DDOT": 1.4611e-05
  },
  {
    "OBJECT_NAME": "STARLINK-31141",
    "OBJECT_ID": "2024-012S",
    "EPOCH": "2024-01-31T12:00:02.000160",
    "MEAN_MOTION": 15.73078023,
    "ECCENTRICITY": 0.0001258,
    "INCLINATION": 43.0008,
    "RA_OF_ASC_NODE": 178.3122,
    "ARG_OF_PERICENTER": 279.8885,
    "MEAN_ANOMALY": 58.2651,
    "EPHEMERIS_TYPE": 0,
    "CLASSIFICATION_TYPE": "U",
    "NORAD_CAT_ID": 58803,
    "ELEMENT_SET_NO": 999,
    "REV_AT_EPOCH": 382,
    "BSTAR": -0.014239,
    "MEAN_MOTION_DOT": -0.0176466,
    "MEAN_MOTION_DDOT": 0
  },
  {
    "OBJECT_NAME": "STARLINK-31188",
    "OBJECT_ID": "2024-012T",
    "EPOCH": "2024-01-31T12:00:02.000160",
    "MEAN_MOTION": 15.73042748,
    "ECCENTRICITY": 0.0001147,
    "INCLINATION": 43.0008,
    "RA_OF_ASC_NODE": 178.3144,
    "ARG_OF_PERICENTER": 301.059,
    "MEAN_ANOMALY": 36.2333,
    "EPHEMERIS_TYPE": 0,
    "CLASSIFICATION_TYPE": "U",
    "NORAD_CAT_ID": 58804,
    "ELEMENT_SET_NO": 999,
    "REV_AT_EPOCH": 382,
    "BSTAR": -0.013829,
    "MEAN_MOTION_DOT": -0.01717569,
    "MEAN_MOTION_DDOT": 0
  },
  {
    "OBJECT_NAME": "STARLINK-31105",
    "OBJECT_ID": "2024-012U",
    "EPOCH": "2024-01-31T12:00:02.000160",
    "MEAN_MOTION": 15.73091318,
    "ECCENTRICITY": 0.0001006,
    "INCLINATION": 43.001,
    "RA_OF_ASC_NODE": 178.3103,
    "ARG_OF_PERICENTER": 275.1545,
    "MEAN_ANOMALY": 63.8877,
    "EPHEMERIS_TYPE": 0,
    "CLASSIFICATION_TYPE": "U",
    "NORAD_CAT_ID": 58805,
    "ELEMENT_SET_NO": 999,
    "REV_AT_EPOCH": 367,
    "BSTAR": -0.014603,
    "MEAN_MOTION_DOT": -0.0180476,
    "MEAN_MOTION_DDOT": 0
  },
  {
    "OBJECT_NAME": "STARLINK-31138",
    "OBJECT_ID": "2024-012V",
    "EPOCH": "2024-01-31T12:00:02.000160",
    "MEAN_MOTION": 15.73033498,
    "ECCENTRICITY": 0.0001387,
    "INCLINATION": 43.0008,
    "RA_OF_ASC_NODE": 178.3082,
    "ARG_OF_PERICENTER": 294.7541,
    "MEAN_ANOMALY": 45.1797,
    "EPHEMERIS_TYPE": 0,
    "CLASSIFICATION_TYPE": "U",
    "NORAD_CAT_ID": 58806,
    "ELEMENT_SET_NO": 999,
    "REV_AT_EPOCH": 382,
    "BSTAR": -0.013783,
    "MEAN_MOTION_DOT": -0.01712104,
    "MEAN_MOTION_DDOT": 0
  },
  {
    "OBJECT_NAME": "STARLINK-31163",
    "OBJECT_ID": "2024-012W",
    "EPOCH": "2024-01-31T04:00:00.999936",
    "MEAN_MOTION": 15.74160172,
    "ECCENTRICITY": 0.0001649,
    "INCLINATION": 43.0016,
    "RA_OF_ASC_NODE": 180.3207,
    "ARG_OF_PERICENTER": 250.948,
    "MEAN_ANOMALY": 359.2366,
    "EPHEMERIS_TYPE": 0,
    "CLASSIFICATION_TYPE": "U",
    "NORAD_CAT_ID": 58807,
    "ELEMENT_SET_NO": 999,
    "REV_AT_EPOCH": 377,
    "BSTAR": -0.01243,
    "MEAN_MOTION_DOT": -0.01632107,
    "MEAN_MOTION_DDOT": 0
  },
  {
    "OBJECT_NAME": "STARLINK-31174",
    "OBJECT_ID": "2024-012X",
    "EPOCH": "2024-01-31T12:00:02.000160",
    "MEAN_MOTION": 15.73049184,
    "ECCENTRICITY": 0.000179,
    "INCLINATION": 43.0008,
    "RA_OF_ASC_NODE": 178.3032,
    "ARG_OF_PERICENTER": 287.367,
    "MEAN_ANOMALY": 54.3145,
    "EPHEMERIS_TYPE": 0,
    "CLASSIFICATION_TYPE": "U",
    "NORAD_CAT_ID": 58808,
    "ELEMENT_SET_NO": 999,
    "REV_AT_EPOCH": 382,
    "BSTAR": -0.013963,
    "MEAN_MOTION_DOT": -0.01733102,
    "MEAN_MOTION_DDOT": 0
  },
  {
    "OBJECT_NAME": "STARLINK-31169",
    "OBJECT_ID": "2024-012Y",
    "EPOCH": "2024-01-31T12:00:02.000160",
    "MEAN_MOTION": 15.73029177,
    "ECCENTRICITY": 0.0001324,
    "INCLINATION": 43.0008,
    "RA_OF_ASC_NODE": 178.3014,
    "ARG_OF_PERICENTER": 260.2092,
    "MEAN_ANOMALY": 82.3636,
    "EPHEMERIS_TYPE": 0,
    "CLASSIFICATION_TYPE": "U",
    "NORAD_CAT_ID": 58809,
    "ELEMENT_SET_NO": 999,
    "REV_AT_EPOCH": 382,
    "BSTAR": -0.013787,
    "MEAN_MOTION_DOT": -0.01712215,
    "MEAN_MOTION_DDOT": 0
  },
  {
    "OBJECT_NAME": "NANOFF A",
    "OBJECT_ID": "2023-185T",
    "EPOCH": "2024-01-29T19:00:14.995872",
    "MEAN_MOTION": 15.0186559,
    "ECCENTRICITY": 0.0013698,
    "INCLINATION": 97.6416,
    "RA_OF_ASC_NODE": 98.6894,
    "ARG_OF_PERICENTER": 49.2557,
    "MEAN_ANOMALY": 46.4273,
    "EPHEMERIS_TYPE": 0,
    "CLASSIFICATION_TYPE": "U",
    "NORAD_CAT_ID": 58810,
    "ELEMENT_SET_NO": 999,
    "REV_AT_EPOCH": 206,
    "BSTAR": 0.00032841,
    "MEAN_MOTION_DOT": 4.237e-05,
    "MEAN_MOTION_DDOT": 0
  },
  {
    "OBJECT_NAME": "TIANZHOU-7",
    "OBJECT_ID": "2024-013A",
    "EPOCH": "2024-01-29T20:22:02.923680",
    "MEAN_MOTION": 15.62877539,
    "ECCENTRICITY": 0.0008738,
    "INCLINATION": 41.4671,
    "RA_OF_ASC_NODE": 214.4573,
    "ARG_OF_PERICENTER": 265.2679,
    "MEAN_ANOMALY": 94.7163,
    "EPHEMERIS_TYPE": 0,
    "CLASSIFICATION_TYPE": "U",
    "NORAD_CAT_ID": 58811,
    "ELEMENT_SET_NO": 999,
    "REV_AT_EPOCH": 15728,
    "BSTAR": 0.00019093,
    "MEAN_MOTION_DOT": 0.00017472,
    "MEAN_MOTION_DDOT": 0
  },
  {
    "OBJECT_NAME": "CZ-7 DEB",
    "OBJECT_ID": "2024-013C",
    "EPOCH": "2024-01-18T02:44:11.395392",
    "MEAN_MOTION": 15.7371095,
    "ECCENTRICITY": 0.0234014,
    "INCLINATION": 41.8298,
    "RA_OF_ASC_NODE": 285.9373,
    "ARG_OF_PERICENTER": 181.6233,
    "MEAN_ANOMALY": 328.207,
    "EPHEMERIS_TYPE": 0,
    "CLASSIFICATION_TYPE": "U",
    "NORAD_CAT_ID": 58813,
    "ELEMENT_SET_NO": 999,
    "REV_AT_EPOCH": 9,
    "BSTAR": 0,
    "MEAN_MOTION_DOT": -2.294e-05,
    "MEAN_MOTION_DDOT": 7.267e-06
  },
  {
    "OBJECT_NAME": "CZ-7 DEB",
    "OBJECT_ID": "2024-013D",
    "EPOCH": "2024-01-18T02:44:48.187104",
    "MEAN_MOTION": 15.72861586,
    "ECCENTRICITY": 0.0240306,
    "INCLINATION": 41.6413,
    "RA_OF_ASC_NODE": 286.0086,
    "ARG_OF_PERICENTER": 187.1577,
    "MEAN_ANOMALY": 323.2676,
    "EPHEMERIS_TYPE": 0,
    "CLASSIFICATION_TYPE": "U",
    "NORAD_CAT_ID": 58814,
    "ELEMENT_SET_NO": 999,
    "REV_AT_EPOCH": 8,
    "BSTAR": 0,
    "MEAN_MOTION_DOT": -2.24e-05,
    "MEAN_MOTION_DDOT": 7.095e-06
  },
  {
    "OBJECT_NAME": "AXIOM-3",
    "OBJECT_ID": "2024-014A",
    "EPOCH": "2024-01-30T12:49:26.731488",
    "MEAN_MOTION": 15.49366647,
    "ECCENTRICITY": 0.0002582,
    "INCLINATION": 51.6386,
    "RA_OF_ASC_NODE": 282.4207,
    "ARG_OF_PERICENTER": 182.1342,
    "MEAN_ANOMALY": 177.9636,
    "EPHEMERIS_TYPE": 0,
    "CLASSIFICATION_TYPE": "U",
    "NORAD_CAT_ID": 58815,
    "ELEMENT_SET_NO": 999,
    "REV_AT_EPOCH": 43704,
    "BSTAR": 0.0002469,
    "MEAN_MOTION_DOT": 0.00013351,
    "MEAN_MOTION_DDOT": 0
  },
  {
    "OBJECT_NAME": "DALIAN-1 LIANLI",
    "OBJECT_ID": "2023-063C",
    "EPOCH": "2024-01-29T18:47:27.808800",
    "MEAN_MOTION": 15.66444064,
    "ECCENTRICITY": 0.001152,
    "INCLINATION": 41.4674,
    "RA_OF_ASC_NODE": 214.5252,
    "ARG_OF_PERICENTER": 239.0941,
    "MEAN_ANOMALY": 239.9411,
    "EPHEMERIS_TYPE": 0,
    "CLASSIFICATION_TYPE": "U",
    "NORAD_CAT_ID": 58816,
    "ELEMENT_SET_NO": 999,
    "REV_AT_EPOCH": 174,
    "BSTAR": 0.0011155,
    "MEAN_MOTION_DOT": 0.00121385,
    "MEAN_MOTION_DDOT": 0
  }
]