STARLINK-31173          
1 58802U 24012R   24031.00002315 -.00134576  14611-4 -30230-3 0  9999
2 58802  43.0012 180.0249 0002198 289.4899 254.4554 15.96403588  3751
STARLINK-31141          
1 58803U 24012S   24031.50002315 -.01764660  00000+0 -14239-1 0  9990
2 58803  43.0008 178.3122 0001258 279.8885  58.2651 15.73078023  3824
STARLINK-31188          
1 58804U 24012T   24031.50002315 -.01717569  00000+0 -13829-1 0  9991
2 58804  43.0008 178.3144 0001147 301.0590  36.2333 15.73042748  3825
STARLINK-31105          
1 58805U 24012U   24031.50002315 -.01804760  00000+0 -14603-1 0  9993
2 58805  43.0010 178.3103 0001006 275.1545  63.8877 15.73091318  3678
STARLINK-31138          
1 58806U 24012V   24031.50002315 -.01712104  00000+0 -13783-1 0  9992
2 58806  43.0008 178.3082 0001387 294.7541  45.1797 15.73033498  3823
STARLINK-31163          
1 58807U 24012W   24031.16667824 -.01632107  00000+0 -12430-1 0  9999
2 58807  43.0016 180.3207 0001649 250.9480 359.2366 15.74160172  3778
STARLINK-31174          
1 58808U 24012X   24031.50002315 -.01733102  00000+0 -13963-1 0  9995
2 58808  43.0008 178.3032 0001790 287.3670  54.3145 15.73049184  3827
STARLINK-31169          
1 58809U 24012Y   24031.50002315 -.01712215  00000+0 -13787-1 0  9992
2 58809  43.0008 178.3014 0001324 260.2092  82.3636 15.73029177  3825
NANOFF A                
1 58810U 23185T   24029.79184023  .00004237  00000+0  32841-3 0  9998
2 58810  97.6416  98.6894 0013698  49.2557  46.4273 15.01865590  2064
TIANZHOU-7              
1 58811U 24013A   24029.84864495  .00017472  00000+0  19093-3 0  9993
2 58811  41.4671 214.4573 0008738 265.2679  94.7163 15.62877539157283
CZ-7 DEB                
1 58813U 24013C   24018.11402078 -.00002294  72670-5  00000+0 0  9997
2 58813  41.8298 285.9373 0234014 181.6233 328.2070 15.73710950    93
CZ-7 DEB                
1 58814U 24013D   24018.11444661 -.00002240  70950-5  00000+0 0  9992
2 58814  41.6413 286.0086 0240306 187.1577 323.2676 15.72861586    84
AXIOM-3                 
1 58815U 24014A   24030.53433717  .00013351  00000+0  24690-3 0  9996
2 58815  51.6386 282.4207 0002582 182.1342 177.9636 15.49366647437049
DALIAN-1 LIANLI         
1 58816U 23063C   24029.78296075  .00121385  00000+0  11155-2 0  9997
2 58816  41.4674 214.5252 0011520 239.0941 239.9411 15.66444064  1745
